start=new Date('2022-03-11T00:00:00.000Z').valueOf();
sats=[{"PERIAPSIS":"340.517","NORAD_CAT_ID":"51876","APOAPSIS":"342.136","EPHEMERIS_TYPE":"0","REF_FRAME":"TEME","TLE_LINE1":"1 51876U 22022AA  22069.91668981 -.00871764  00000-0 -60441-2 0  9994","RCS_SIZE":null,"PERIOD":"91.361","MEAN_MOTION_DDOT":"0.0000000000000","EPOCH":"2022-03-10T22:00:01.999584","FILE":"3354091","MEAN_MOTION":"15.76162687","COUNTRY_CODE":"US","MEAN_ANOMALY":"29.1114","SEMIMAJOR_AXIS":"6719.462","DECAY_DATE":null,"TLE_LINE2":"2 51876  53.2175 107.9710 0001205  46.0576  29.1114 15.76162687  1821","BSTAR":"-0.00604410000000","REV_AT_EPOCH":"182","ELEMENT_SET_NO":"999","TIME_SYSTEM":"UTC","INCLINATION":"53.2175","OBJECT_TYPE":"PAYLOAD","CENTER_NAME":"EARTH","MEAN_MOTION_DOT":"-0.00871764","SITE":"AFETR","GP_ID":"198441879","OBJECT_NAME":"STARLINK-3583","ARG_OF_PERICENTER":"46.0576","ECCENTRICITY":"0.00012050","CLASSIFICATION_TYPE":"U","OBJECT_ID":"2022-022AA","RA_OF_ASC_NODE":"107.9710","LAUNCH_DATE":"2022-03-03","MEAN_ELEMENT_THEORY":"SGP4"},{"ELEMENT_SET_NO":"999","TIME_SYSTEM":"UTC","BSTAR":"-0.00601330000000","REV_AT_EPOCH":"180","TLE_LINE2":"2 51877  53.2175 107.9660 0001337  39.7975  37.9104 15.76276514  1803","SEMIMAJOR_AXIS":"6719.138","DECAY_DATE":null,"MEAN_MOTION_DOT":"-0.00871768","OBJECT_TYPE":"PAYLOAD","CENTER_NAME":"EARTH","INCLINATION":"53.2175","ARG_OF_PERICENTER":"39.7975","ECCENTRICITY":"0.00013370","OBJECT_NAME":"STARLINK-3556","SITE":"AFETR","GP_ID":"198441569","MEAN_ELEMENT_THEORY":"SGP4","RA_OF_ASC_NODE":"107.9660","LAUNCH_DATE":"2022-03-03","CLASSIFICATION_TYPE":"U","OBJECT_ID":"2022-022AB","PERIAPSIS":"340.105","REF_FRAME":"TEME","EPHEMERIS_TYPE":"0","NORAD_CAT_ID":"51877","APOAPSIS":"341.902","MEAN_ANOMALY":"37.9104","COUNTRY_CODE":"US","FILE":"3354091","MEAN_MOTION":"15.76276514","TLE_LINE1":"1 51877U 22022AB  22069.91668981 -.00871768  00000-0 -60133-2 0  9997","PERIOD":"91.355","RCS_SIZE":null,"MEAN_MOTION_DDOT":"0.0000000000000","EPOCH":"2022-03-10T22:00:01.999584"},{"FILE":"3354091","MEAN_MOTION":"15.76207805","TLE_LINE1":"1 51878U 22022AC  22069.91668981 -.00871955  00000-0 -60338-2 0  9993","RCS_SIZE":null,"PERIOD":"91.359","EPOCH":"2022-03-10T22:00:01.999584","MEAN_MOTION_DDOT":"0.0000000000000","MEAN_ANOMALY":"16.7212","COUNTRY_CODE":"US","PERIAPSIS":"340.486","EPHEMERIS_TYPE":"0","NORAD_CAT_ID":"51878","APOAPSIS":"341.911","REF_FRAME":"TEME","SITE":"AFETR","GP_ID":"198441667","ARG_OF_PERICENTER":"59.4692","ECCENTRICITY":"0.00010600","OBJECT_NAME":"STARLINK-3575","OBJECT_ID":"2022-022AC","CLASSIFICATION_TYPE":"U","MEAN_ELEMENT_THEORY":"SGP4","RA_OF_ASC_NODE":"107.9689","LAUNCH_DATE":"2022-03-03","TLE_LINE2":"2 51878  53.2175 107.9689 0001060  59.4692  16.7212 15.76207805  1827","SEMIMAJOR_AXIS":"6719.333","DECAY_DATE":null,"ELEMENT_SET_NO":"999","TIME_SYSTEM":"UTC","BSTAR":"-0.00603380000000","REV_AT_EPOCH":"182","OBJECT_TYPE":"PAYLOAD","CENTER_NAME":"EARTH","INCLINATION":"53.2175","MEAN_MOTION_DOT":"-0.00871955"},{"MEAN_ANOMALY":"31.7295","COUNTRY_CODE":"US","FILE":"3354091","MEAN_MOTION":"15.76321829","RCS_SIZE":null,"EPOCH":"2022-03-10T22:00:01.999584","PERIOD":"91.352","MEAN_MOTION_DDOT":"0.0000000000000","TLE_LINE1":"1 51879U 22022AD  22069.91668981 -.00871857  00000-0 -60022-2 0  9995","PERIAPSIS":"340.068","REF_FRAME":"TEME","EPHEMERIS_TYPE":"0","APOAPSIS":"341.681","NORAD_CAT_ID":"51879","ECCENTRICITY":"0.00012000","ARG_OF_PERICENTER":"46.9889","OBJECT_NAME":"STARLINK-3572","GP_ID":"198441147","SITE":"AFETR","MEAN_ELEMENT_THEORY":"SGP4","LAUNCH_DATE":"2022-03-03","RA_OF_ASC_NODE":"107.9640","OBJECT_ID":"2022-022AD","CLASSIFICATION_TYPE":"U","TIME_SYSTEM":"UTC","ELEMENT_SET_NO":"999","REV_AT_EPOCH":"182","BSTAR":"-0.00600220000000","TLE_LINE2":"2 51879  53.2175 107.9640 0001200  46.9889  31.7295 15.76321829  1821","DECAY_DATE":null,"SEMIMAJOR_AXIS":"6719.009","MEAN_MOTION_DOT":"-0.00871857","CENTER_NAME":"EARTH","OBJECT_TYPE":"PAYLOAD","INCLINATION":"53.2175"},{"MEAN_ANOMALY":"21.2275","COUNTRY_CODE":"US","FILE":"3354091","MEAN_MOTION":"15.76254588","RCS_SIZE":null,"PERIOD":"91.356","MEAN_MOTION_DDOT":"0.0000000000000","EPOCH":"2022-03-10T22:00:01.999584","TLE_LINE1":"1 51880U 22022AE  22069.91668981 -.00872051  00000-0 -60219-2 0  9992","PERIAPSIS":"340.325","REF_FRAME":"TEME","EPHEMERIS_TYPE":"0","APOAPSIS":"341.806","NORAD_CAT_ID":"51880","ECCENTRICITY":"0.00011020","ARG_OF_PERICENTER":"55.9707","OBJECT_NAME":"STARLINK-3566","GP_ID":"198441773","SITE":"AFETR","MEAN_ELEMENT_THEORY":"SGP4","LAUNCH_DATE":"2022-03-03","RA_OF_ASC_NODE":"107.9669","OBJECT_ID":"2022-022AE","CLASSIFICATION_TYPE":"U","TIME_SYSTEM":"UTC","ELEMENT_SET_NO":"999","REV_AT_EPOCH":"182","BSTAR":"-0.00602190000000","TLE_LINE2":"2 51880  53.2175 107.9669 0001102  55.9707  21.2275 15.76254588  1823","DECAY_DATE":null,"SEMIMAJOR_AXIS":"6719.200","MEAN_MOTION_DOT":"-0.00872051","CENTER_NAME":"EARTH","OBJECT_TYPE":"PAYLOAD","INCLINATION":"53.2175"},{"BSTAR":"-0.00598940000000","REV_AT_EPOCH":"179","ELEMENT_SET_NO":"999","TIME_SYSTEM":"UTC","SEMIMAJOR_AXIS":"6718.882","DECAY_DATE":null,"TLE_LINE2":"2 51881  53.2175 107.9620 0001245  44.3136  35.4123 15.76366834  1790","MEAN_MOTION_DOT":"-0.00871768","INCLINATION":"53.2175","OBJECT_TYPE":"PAYLOAD","CENTER_NAME":"EARTH","OBJECT_NAME":"STARLINK-3504","ARG_OF_PERICENTER":"44.3136","ECCENTRICITY":"0.00012450","SITE":"AFETR","GP_ID":"198441250","RA_OF_ASC_NODE":"107.9620","LAUNCH_DATE":"2022-03-03","MEAN_ELEMENT_THEORY":"SGP4","OBJECT_ID":"2022-022AF","CLASSIFICATION_TYPE":"U","PERIAPSIS":"339.910","REF_FRAME":"TEME","NORAD_CAT_ID":"51881","APOAPSIS":"341.583","EPHEMERIS_TYPE":"0","COUNTRY_CODE":"US","MEAN_ANOMALY":"35.4123","TLE_LINE1":"1 51881U 22022AF  22069.91668981 -.00871768  00000-0 -59894-2 0  9994","RCS_SIZE":null,"MEAN_MOTION_DDOT":"0.0000000000000","PERIOD":"91.349","EPOCH":"2022-03-10T22:00:01.999584","FILE":"3354091","MEAN_MOTION":"15.76366834"},{"MEAN_ANOMALY":"38.4214","COUNTRY_CODE":"US","FILE":"3354091","MEAN_MOTION":"15.76298595","TLE_LINE1":"1 51882U 22022AG  22069.91668981 -.00871395  00000-0 -60048-2 0  9994","RCS_SIZE":null,"PERIOD":"91.353","EPOCH":"2022-03-10T22:00:01.999584","MEAN_MOTION_DDOT":"0.0000000000000","PERIAPSIS":"340.109","REF_FRAME":"TEME","EPHEMERIS_TYPE":"0","NORAD_CAT_ID":"51882","APOAPSIS":"341.772","ARG_OF_PERICENTER":"39.7942","ECCENTRICITY":"0.00012380","OBJECT_NAME":"STARLINK-3570","SITE":"AFETR","GP_ID":"198441349","MEAN_ELEMENT_THEORY":"SGP4","RA_OF_ASC_NODE":"107.9649","LAUNCH_DATE":"2022-03-03","OBJECT_ID":"2022-022AG","CLASSIFICATION_TYPE":"U","ELEMENT_SET_NO":"999","TIME_SYSTEM":"UTC","BSTAR":"-0.00600480000000","REV_AT_EPOCH":"182","TLE_LINE2":"2 51882  53.2175 107.9649 0001238  39.7942  38.4214 15.76298595  1823","SEMIMAJOR_AXIS":"6719.075","DECAY_DATE":null,"MEAN_MOTION_DOT":"-0.00871395","OBJECT_TYPE":"PAYLOAD","CENTER_NAME":"EARTH","INCLINATION":"53.2175"},{"REF_FRAME":"TEME","EPHEMERIS_TYPE":"0","NORAD_CAT_ID":"51883","APOAPSIS":"341.442","PERIAPSIS":"339.793","MEAN_ANOMALY":"33.7142","COUNTRY_CODE":"US","FILE":"3354091","MEAN_MOTION":"15.76412170","TLE_LINE1":"1 51883U 22022AH  22069.91668981 -.00871891  00000-0 -59783-2 0  9990","RCS_SIZE":null,"MEAN_MOTION_DDOT":"0.0000000000000","PERIOD":"91.347","EPOCH":"2022-03-10T22:00:01.999584","MEAN_MOTION_DOT":"-0.00871891","OBJECT_TYPE":"PAYLOAD","CENTER_NAME":"EARTH","INCLINATION":"53.2175","ELEMENT_SET_NO":"999","TIME_SYSTEM":"UTC","BSTAR":"-0.00597830000000","REV_AT_EPOCH":"179","TLE_LINE2":"2 51883  53.2175 107.9599 0001227  47.0142  33.7142 15.76412170  1791","SEMIMAJOR_AXIS":"6718.753","DECAY_DATE":null,"MEAN_ELEMENT_THEORY":"SGP4","RA_OF_ASC_NODE":"107.9599","LAUNCH_DATE":"2022-03-03","CLASSIFICATION_TYPE":"U","OBJECT_ID":"2022-022AH","ARG_OF_PERICENTER":"47.0142","ECCENTRICITY":"0.00012270","OBJECT_NAME":"STARLINK-3576","SITE":"AFETR","GP_ID":"198441467"},{"ECCENTRICITY":"0.00012600","ARG_OF_PERICENTER":"43.3463","OBJECT_NAME":"STARLINK-3577","GP_ID":"198441880","SITE":"AFETR","MEAN_ELEMENT_THEORY":"SGP4","LAUNCH_DATE":"2022-03-03","RA_OF_ASC_NODE":"107.9628","CLASSIFICATION_TYPE":"U","OBJECT_ID":"2022-022AJ","TIME_SYSTEM":"UTC","ELEMENT_SET_NO":"999","REV_AT_EPOCH":"179","BSTAR":"-0.00599530000000","TLE_LINE2":"2 51884  53.2175 107.9628 0001260  43.3463  35.8761 15.76344346  1796","DECAY_DATE":null,"SEMIMAJOR_AXIS":"6718.945","MEAN_MOTION_DOT":"-0.00871759","CENTER_NAME":"EARTH","OBJECT_TYPE":"PAYLOAD","INCLINATION":"53.2175","MEAN_ANOMALY":"35.8761","COUNTRY_CODE":"US","FILE":"3354091","MEAN_MOTION":"15.76344346","RCS_SIZE":null,"EPOCH":"2022-03-10T22:00:01.999584","PERIOD":"91.351","MEAN_MOTION_DDOT":"0.0000000000000","TLE_LINE1":"1 51884U 22022AJ  22069.91668981 -.00871759  00000-0 -59953-2 0  9993","PERIAPSIS":"339.964","REF_FRAME":"TEME","EPHEMERIS_TYPE":"0","APOAPSIS":"341.657","NORAD_CAT_ID":"51884"},{"MEAN_MOTION":"15.76455146","FILE":"3354091","PERIOD":"91.344","RCS_SIZE":null,"EPOCH":"2022-03-10T22:00:01.999584","MEAN_MOTION_DDOT":"0.0000000000000","TLE_LINE1":"1 51885U 22022AK  22069.91668981 -.00871723  00000-0 -59653-2 0  9992","MEAN_ANOMALY":"42.7948","COUNTRY_CODE":"US","PERIAPSIS":"339.589","EPHEMERIS_TYPE":"0","APOAPSIS":"341.402","NORAD_CAT_ID":"51885","REF_FRAME":"TEME","GP_ID":"198441570","SITE":"AFETR","ECCENTRICITY":"0.00013490","ARG_OF_PERICENTER":"38.9457","OBJECT_NAME":"STARLINK-3584","OBJECT_ID":"2022-022AK","CLASSIFICATION_TYPE":"U","MEAN_ELEMENT_THEORY":"SGP4","LAUNCH_DATE":"2022-03-03","RA_OF_ASC_NODE":"107.9579","TLE_LINE2":"2 51885  53.2175 107.9579 0001349  38.9457  42.7948 15.76455146  1798","DECAY_DATE":null,"SEMIMAJOR_AXIS":"6718.631","TIME_SYSTEM":"UTC","ELEMENT_SET_NO":"999","REV_AT_EPOCH":"179","BSTAR":"-0.00596530000000","CENTER_NAME":"EARTH","OBJECT_TYPE":"PAYLOAD","INCLINATION":"53.2175","MEAN_MOTION_DOT":"-0.00871723"}];
